GSAT0101 (GALILEO-PFM)  
1 37846U 11060A   24242.45972981 -.00000114  00000+0  00000+0 0  9990
2 37846  57.1281 359.5547 0001215  74.0161 285.9980  1.70475830 80059
GSAT0102 (GALILEO-FM2)  
1 37847U 11060B   24241.79796229 -.00000113  00000+0  00000+0 0  9995
2 37847  57.1288 359.5727 0001390 327.9194  31.5024  1.70475286 79919
GSAT0103 (GALILEO-FM3)  
1 38857U 12055A   24240.15285405 -.00000029  00000+0  00000+0 0  9996
2 38857  55.4349 119.6543 0003099 279.7100  80.3243  1.70473673 73771
GSAT0201 (GALILEO 5)    
1 40128U 14050A   24241.85126436 -.00000053  00000+0  00000+0 0  9990
2 40128  49.5840 300.1406 1613088 154.1075 214.9698  1.85519491 66128
GSAT0202 (GALILEO 6)    
1 40129U 14050B   24239.95333147 -.00000059  00000+0  00000+0 0  9994
2 40129  49.6025 299.2948 1612099 154.8299 214.0113  1.85520135 68256
GSAT0203 (GALILEO 7)    
1 40544U 15017A   24240.47907799 -.00000110  00000+0  00000+0 0  9996
2 40544  56.9230 359.5326 0003503 235.6827 124.2874  1.70476196 57978
GSAT0204 (GALILEO 8)    
1 40545U 15017B   24241.32003690 -.00000112  00000+0  00000+0 0  9991
2 40545  56.9295 359.5255 0003905 220.4358 139.5373  1.70475799 21037
GSAT0205 (GALILEO 9)    
1 40889U 15045A   24240.50155775  .00000054  00000+0  00000+0 0  9998
2 40889  55.1887 239.7982 0003105   7.0876 352.9294  1.70473355 55786
GSAT0206 (GALILEO 10)   
1 40890U 15045B   24241.30880020  .00000050  00000+0  00000+0 0  9993
2 40890  55.1880 239.7713 0001944 329.3422  30.6592  1.70473349 55828
GSAT0209 (GALILEO 12)   
1 41174U 15079A   24240.89219037 -.00000029  00000+0  00000+0 0  9990
2 41174  55.4541 119.3440 0003137 346.8782  13.1835  1.70473845 53555
GSAT0208 (GALILEO 11)   
1 41175U 15079B   24239.35222546 -.00000026  00000+0  00000+0 0  9996
2 41175  55.4513 119.3841 0002800 343.7755  16.2866  1.70473707 53940
GSAT0211 (GALILEO 14)   
1 41549U 16030A   24240.64791235  .00000054  00000+0  00000+0 0  9999
2 41549  55.3370 239.8083 0003450 312.2619  47.7217  1.70473437 51445
GSAT0207 (GALILEO 15)   
1 41859U 16069A   24241.18575150 -.00000029  00000+0  00000+0 0  9994
2 41859  55.1191 119.3197 0003287 318.8374  41.2080  1.70473876 48185
GSAT0212 (GALILEO 16)   
1 41860U 16069B   24241.62656694 -.00000028  00000+0  00000+0 0  9997
2 41860  55.1173 119.3038 0002733   8.8016 351.2746  1.70473981 48444
GSAT0213 (GALILEO 17)   
1 41861U 16069C   24237.88896581 -.00000016  00000+0  00000+0 0  9999
2 41861  55.1177 119.4145 0002880 291.4876  68.5583  1.70474319 48247
GSAT0214 (GALILEO 18)   
1 41862U 16069D   24241.55371928 -.00000028  00000+0  00000+0 0  9995
2 41862  55.1180 119.3059 0001894 301.0554  58.9971  1.70474038 48433
GSAT0215 (GALILEO 19)   
1 43055U 17079A   24239.11006854  .00000056  00000+0  00000+0 0  9995
2 43055  55.3144 239.6716 0003531 264.2227  95.7468  1.70474091 41739
GSAT0216 (GALILEO 20)   
1 43056U 17079B   24242.33463267  .00000045  00000+0  00000+0 0  9997
2 43056  55.3138 239.5826 0004909 273.3321  86.6224  1.70474230 41778
GSAT0217 (GALILEO 21)   
1 43057U 17079C   24241.38196391  .00000050  00000+0  00000+0 0  9999
2 43057  55.3129 239.6075 0004186 284.5441  75.4219  1.70474182 41776
GSAT0218 (GALILEO 22)   
1 43058U 17079D   24242.18860512  .00000045  00000+0  00000+0 0  9996
2 43058  55.3119 239.5829 0005396 270.4679  89.4814  1.70474177 41784
GSAT0221 (GALILEO 25)   
1 43564U 18060A   24240.91656309 -.00000111  00000+0  00000+0 0  9990
2 43564  57.3030 359.5392 0003208 259.3792 100.5871  1.70476083 37949
GSAT0222 (GALILEO 26)   
1 43565U 18060B   24241.13518647 -.00000112  00000+0  00000+0 0  9999
2 43565  57.3067 359.5353 0003651 221.8371 138.1371  1.70475896 37994
GSAT0219 (GALILEO 23)   
1 43566U 18060C   24241.35695367 -.00000112  00000+0  00000+0 0  9999
2 43566  57.3065 359.5312 0002275 261.5574  98.4187  1.70476165 37976
GSAT0220 (GALILEO 24)   
1 43567U 18060D   24241.57763041 -.00000113  00000+0  00000+0 0  9990
2 43567  57.3059 359.5249 0003012 257.3773 102.5906  1.70475903 37967
GSAT0223 (GALILEO 27)   
1 49809U 21116A   24240.26319760 -.00000109  00000+0  00000+0 0  9996
2 49809  57.2957 359.4542 0003351 191.3359 172.4159  1.70476035 16955
GSAT0224 (GALILEO 28)   
1 49810U 21116B   24242.42640215 -.00000114  00000+0  00000+0 0  9996
2 49810  57.2969 359.3945 0002862 188.1307 175.7417  1.70476227 17002
GSAT0225 (GALILEO 29)   
1 59598U 24079A   24240.38550894 -.00000031  00000+0  00000+0 0  9995
2 59598  54.7348 119.5165 0001401 188.9977 353.0974  1.70474142  2083
GSAT0227 (GALILEO 30)   
1 59600U 24079C   24239.68561198 -.00000029  00000+0  00000+0 0  9996
2 59600  54.7299 119.5373 0001935  99.8999 260.1915  1.70474182  2121
